Zip,City,State,Latitude,Longitude,Facility_ID at given Location/Zip, Distribution Center ID Serving this Zip Code,Warehouse ID supplying this Distribution Center
60651,Chicago,IL,41.901485,-87.74055,Warehouse_1,DistributionCenter_1,Warehouse_1
60697,Chicago,IL,41.811929,-87.68732,,DistributionCenter_1,Warehouse_1
60667,Chicago,IL,41.811929,-87.68732,,DistributionCenter_1,Warehouse_1
60694,Chicago,IL,41.811929,-87.68732,,DistributionCenter_1,Warehouse_1
60684,Chicago,IL,41.811929,-87.68732,,DistributionCenter_1,Warehouse_1
60644,Chicago,IL,41.881331,-87.75671,DistributionCenter_1,DistributionCenter_1,Warehouse_1
60668,Chicago,IL,41.811929,-87.68732,,DistributionCenter_1,Warehouse_1
60646,Chicago,IL,41.995331,-87.7601,,DistributionCenter_1,Warehouse_1
60654,Chicago,IL,41.888627,-87.63538,,DistributionCenter_2,Warehouse_1
60683,Chicago,IL,41.811929,-87.68732,,DistributionCenter_2,Warehouse_1
60616,Chicago,IL,41.8474,-87.63126,,DistributionCenter_2,Warehouse_1
60647,Chicago,IL,41.921126,-87.70085,DistributionCenter_2,DistributionCenter_2,Warehouse_1
60606,Chicago,IL,41.882582,-87.6376,,DistributionCenter_2,Warehouse_1
60623,Chicago,IL,41.850232,-87.718,,DistributionCenter_2,Warehouse_1
60663,Chicago,IL,41.811929,-87.68732,,DistributionCenter_2,Warehouse_1
60609,Chicago,IL,41.814283,-87.65282,,DistributionCenter_2,Warehouse_1
60660,Chicago,IL,41.990631,-87.6667,,DistributionCenter_2,Warehouse_1
60615,Chicago,IL,41.801525,-87.60215,,DistributionCenter_2,Warehouse_1
60622,Chicago,IL,41.900332,-87.66927,,DistributionCenter_2,Warehouse_1
60625,Chicago,IL,41.971614,-87.70256,Warehouse_2,DistributionCenter_3,Warehouse_2
60649,Chicago,IL,41.761734,-87.57072,,DistributionCenter_3,Warehouse_2
60673,Chicago,IL,41.811929,-87.68732,,DistributionCenter_3,Warehouse_2
60655,Chicago,IL,41.696283,-87.69912,,DistributionCenter_3,Warehouse_2
60641,Chicago,IL,41.946431,-87.74576,,DistributionCenter_3,Warehouse_2
60679,Chicago,IL,41.811929,-87.68732,,DistributionCenter_3,Warehouse_2
60636,Chicago,IL,41.776633,-87.66854,,DistributionCenter_3,Warehouse_2
60657,Chicago,IL,41.940832,-87.65852,DistributionCenter_3,DistributionCenter_3,Warehouse_2
60618,Chicago,IL,41.945681,-87.7048,,DistributionCenter_3,Warehouse_2
60677,Chicago,IL,41.811929,-87.68732,,DistributionCenter_3,Warehouse_2
60628,Chicago,IL,41.695434,-87.62255,,DistributionCenter_4,Warehouse_2
60608,Chicago,IL,41.850532,-87.6699,,DistributionCenter_4,Warehouse_2
60653,Chicago,IL,41.819833,-87.61269,,DistributionCenter_4,Warehouse_2
60685,Chicago,IL,41.811929,-87.68732,DistributionCenter_4,DistributionCenter_4,Warehouse_2
60614,Chicago,IL,41.922682,-87.65432,,DistributionCenter_4,Warehouse_2
60664,Chicago,IL,41.811929,-87.68732,,DistributionCenter_4,Warehouse_2
60607,Chicago,IL,41.875882,-87.65114,,DistributionCenter_4,Warehouse_2
60659,Chicago,IL,41.991381,-87.70378,,DistributionCenter_5,Warehouse_2
60665,Chicago,IL,41.811929,-87.68732,,DistributionCenter_5,Warehouse_2
60631,Chicago,IL,41.99623,-87.81091,DistributionCenter_5,DistributionCenter_5,Warehouse_2
60672,Chicago,IL,41.811929,-87.68732,,DistributionCenter_5,Warehouse_2
60701,Chicago,IL,41.811929,-87.68732,,DistributionCenter_5,Warehouse_2
60691,Chicago,IL,41.811929,-87.68732,,DistributionCenter_5,Warehouse_2
60699,Chicago,IL,41.811929,-87.68732,,DistributionCenter_5,Warehouse_2
60632,Chicago,IL,41.809299,-87.7105,,DistributionCenter_5,Warehouse_2
60603,Chicago,IL,41.880446,-87.63014,,DistributionCenter_5,Warehouse_2
60613,Chicago,IL,41.953256,-87.6629,,DistributionCenter_6,Warehouse_2
60629,Chicago,IL,41.777482,-87.71155,,DistributionCenter_6,Warehouse_2
60692,Chicago,IL,41.867532,-87.672553,,DistributionCenter_6,Warehouse_2
60639,Chicago,IL,41.921431,-87.75415,,DistributionCenter_6,Warehouse_2
60674,Chicago,IL,41.811929,-87.68732,,DistributionCenter_6,Warehouse_2
60650,Chicago,IL,41.818682,-87.743454,,DistributionCenter_6,Warehouse_2
60680,Chicago,IL,41.811929,-87.68732,,DistributionCenter_6,Warehouse_2
60640,Chicago,IL,41.973181,-87.6665,DistributionCenter_6,DistributionCenter_6,Warehouse_2
60690,Chicago,IL,41.811929,-87.68732,,DistributionCenter_6,Warehouse_2
60624,Chicago,IL,41.879365,-87.72199,,DistributionCenter_6,Warehouse_2
60620,Chicago,IL,41.740483,-87.65282,,DistributionCenter_6,Warehouse_2
60604,Chicago,IL,41.877589,-87.62818,,DistributionCenter_6,Warehouse_2
60652,Chicago,IL,41.7446,-87.71188,,DistributionCenter_6,Warehouse_2
60634,Chicago,IL,41.944454,-87.79654,,DistributionCenter_6,Warehouse_2
60602,Chicago,IL,41.882937,-87.62874,Warehouse_3,DistributionCenter_7,Warehouse_3
60621,Chicago,IL,41.776983,-87.6404,,DistributionCenter_7,Warehouse_3
60612,Chicago,IL,41.880682,-87.6877,,DistributionCenter_7,Warehouse_3
60675,Chicago,IL,41.811929,-87.68732,,DistributionCenter_7,Warehouse_3
60619,Chicago,IL,41.744834,-87.60444,DistributionCenter_7,DistributionCenter_7,Warehouse_3
60630,Chicago,IL,41.971044,-87.75869,,DistributionCenter_7,Warehouse_3
60687,Chicago,IL,41.811929,-87.68732,,DistributionCenter_7,Warehouse_3
60669,Chicago,IL,41.811929,-87.68732,,DistributionCenter_7,Warehouse_3
60617,Chicago,IL,41.719973,-87.5557,,DistributionCenter_8,Warehouse_3
60678,Chicago,IL,41.811929,-87.68732,,DistributionCenter_8,Warehouse_3
60671,Chicago,IL,41.811929,-87.68732,DistributionCenter_8,DistributionCenter_8,Warehouse_3
60681,Chicago,IL,41.811929,-87.68732,,DistributionCenter_8,Warehouse_3
60661,Chicago,IL,41.882082,-87.64461,,DistributionCenter_8,Warehouse_3
60610,Chicago,IL,41.898582,-87.6371,,DistributionCenter_9,Warehouse_3
60637,Chicago,IL,41.779384,-87.60544,,DistributionCenter_9,Warehouse_3
60633,Chicago,IL,41.655423,-87.55365,,DistributionCenter_9,Warehouse_3
60638,Chicago,IL,41.787982,-87.7738,DistributionCenter_9,DistributionCenter_9,Warehouse_3
60611,Chicago,IL,41.904667,-87.62504,,DistributionCenter_10,Warehouse_3
60605,Chicago,IL,41.860019,-87.6187,,DistributionCenter_10,Warehouse_3
60626,Chicago,IL,42.009731,-87.66938,DistributionCenter_10,DistributionCenter_10,Warehouse_3
60643,Chicago,IL,41.696433,-87.65993,,DistributionCenter_10,Warehouse_3
60656,Chicago,IL,41.97508,-87.8163,,DistributionCenter_10,Warehouse_3
60693,Chicago,IL,42.096428,-87.71791,,DistributionCenter_11,Warehouse_3
60670,Chicago,IL,41.811929,-87.68732,DistributionCenter_11,DistributionCenter_11,Warehouse_3
60601,Chicago,IL,41.886456,-87.62325,,DistributionCenter_11,Warehouse_3
60645,Chicago,IL,42.008956,-87.69634,,DistributionCenter_11,Warehouse_3
10072,New York,NY,40.780751,-73.977182,Warehouse_4,DistributionCenter_12,Warehouse_4
10166,New York,NY,40.754591,-73.976238,,DistributionCenter_12,Warehouse_4
10268,New York,NY,40.780751,-73.977182,,DistributionCenter_12,Warehouse_4
10012,New York,NY,40.72596,-73.99834,,DistributionCenter_12,Warehouse_4
10094,New York,NY,40.780751,-73.977182,,DistributionCenter_12,Warehouse_4
10259,New York,NY,40.780751,-73.977182,DistributionCenter_12,DistributionCenter_12,Warehouse_4
10039,New York,NY,40.826181,-73.9371,,DistributionCenter_12,Warehouse_4
10138,New York,NY,40.780751,-73.977182,,DistributionCenter_12,Warehouse_4
10160,New York,NY,40.780751,-73.977182,,DistributionCenter_13,Warehouse_4
10422,New York,NY,40.828279,-73.869454,,DistributionCenter_13,Warehouse_4
10149,New York,NY,40.780751,-73.977182,,DistributionCenter_13,Warehouse_4
10040,New York,NY,40.858704,-73.92853,,DistributionCenter_13,Warehouse_4
10017,New York,NY,40.752159,-73.97231,DistributionCenter_13,DistributionCenter_13,Warehouse_4
10099,New York,NY,40.780751,-73.977182,,DistributionCenter_13,Warehouse_4
10123,New York,NY,40.751489,-73.990537,,DistributionCenter_13,Warehouse_4
10168,New York,NY,40.751933,-73.976794,,DistributionCenter_13,Warehouse_4
10048,New York,NY,40.712086,-74.01227,,DistributionCenter_13,Warehouse_4
10121,New York,NY,40.74964,-73.991889,,DistributionCenter_13,Warehouse_4
10110,New York,NY,40.753987,-73.980811,,DistributionCenter_13,Warehouse_4
10177,New York,NY,40.755345,-73.97609,Warehouse_5,DistributionCenter_14,Warehouse_5
10007,New York,NY,40.714754,-74.00721,,DistributionCenter_14,Warehouse_5
10276,New York,NY,40.780751,-73.977182,,DistributionCenter_14,Warehouse_5
10037,New York,NY,40.813385,-73.93616,,DistributionCenter_14,Warehouse_5
10026,New York,NY,40.802853,-73.95471,,DistributionCenter_14,Warehouse_5
10250,New York,NY,40.709387,-74.016529,DistributionCenter_14,DistributionCenter_14,Warehouse_5
10130,New York,NY,40.780751,-73.977182,,DistributionCenter_14,Warehouse_5
10060,New York,NY,40.780751,-73.977182,,DistributionCenter_14,Warehouse_5
10102,New York,NY,40.780751,-73.977182,,DistributionCenter_14,Warehouse_5
10176,New York,NY,40.75557,-73.978877,,DistributionCenter_14,Warehouse_5
10118,New York,NY,40.748998,-73.986467,,DistributionCenter_14,Warehouse_5
10116,New York,NY,40.780751,-73.977182,,DistributionCenter_14,Warehouse_5
10081,New York,NY,40.780751,-73.977182,,DistributionCenter_14,Warehouse_5
10163,New York,NY,40.780751,-73.977182,,DistributionCenter_14,Warehouse_5
10109,New York,NY,40.780751,-73.977182,,DistributionCenter_14,Warehouse_5
10080,New York,NY,40.780751,-73.977182,,DistributionCenter_14,Warehouse_5
10029,New York,NY,40.791586,-73.94575,,DistributionCenter_14,Warehouse_5
10044,New York,NY,40.762174,-73.94917,,DistributionCenter_14,Warehouse_5
10010,New York,NY,40.739022,-73.98205,,DistributionCenter_15,Warehouse_5
10119,New York,NY,40.750824,-73.99289,,DistributionCenter_15,Warehouse_5
10122,New York,NY,40.751757,-73.992171,,DistributionCenter_15,Warehouse_5
10114,New York,NY,40.780751,-73.977182,,DistributionCenter_15,Warehouse_5
10131,New York,NY,40.780751,-73.977182,,DistributionCenter_15,Warehouse_5
10011,New York,NY,40.741012,-74.00012,,DistributionCenter_15,Warehouse_5
10203,New York,NY,40.780751,-73.977182,DistributionCenter_15,DistributionCenter_15,Warehouse_5
10018,New York,NY,40.755101,-73.99337,,DistributionCenter_15,Warehouse_5
10016,New York,NY,40.74618,-73.97759,,DistributionCenter_16,Warehouse_5
10159,New York,NY,40.780751,-73.977182,,DistributionCenter_16,Warehouse_5
10278,New York,NY,40.715721,-74.00395,,DistributionCenter_16,Warehouse_5
10126,New York,NY,40.780751,-73.977182,,DistributionCenter_16,Warehouse_5
10281,New York,NY,40.714643,-74.014958,,DistributionCenter_16,Warehouse_5
10256,New York,NY,40.780751,-73.977182,,DistributionCenter_16,Warehouse_5
10014,New York,NY,40.734718,-74.00532,DistributionCenter_16,DistributionCenter_16,Warehouse_5
10106,New York,NY,40.765243,-73.980438,,DistributionCenter_17,Warehouse_5
10117,New York,NY,40.780751,-73.977182,,DistributionCenter_17,Warehouse_5
10242,New York,NY,40.780751,-73.977182,,DistributionCenter_17,Warehouse_5
10125,New York,NY,40.780751,-73.977182,DistributionCenter_17,DistributionCenter_17,Warehouse_5
10034,New York,NY,40.867653,-73.92,,DistributionCenter_17,Warehouse_5
10038,New York,NY,40.709677,-74.00365,,DistributionCenter_17,Warehouse_5
10154,New York,NY,40.757986,-73.97267,,DistributionCenter_17,Warehouse_5
10172,New York,NY,40.755494,-73.97447,Warehouse_6,DistributionCenter_18,Warehouse_6
10199,New York,NY,40.750308,-74.00058,,DistributionCenter_18,Warehouse_6
10292,New York,NY,40.780751,-73.977182,,DistributionCenter_18,Warehouse_6
10023,New York,NY,40.776099,-73.98285,,DistributionCenter_18,Warehouse_6
10035,New York,NY,40.802395,-73.93359,,DistributionCenter_18,Warehouse_6
10261,New York,NY,40.780751,-73.977182,,DistributionCenter_18,Warehouse_6
10013,New York,NY,40.720666,-74.00526,,DistributionCenter_18,Warehouse_6
10129,New York,NY,40.780751,-73.977182,,DistributionCenter_18,Warehouse_6
10004,New York,NJ,40.699226,-74.04118,DistributionCenter_18,DistributionCenter_18,Warehouse_6
10152,New York,NY,40.758611,-73.97223,,DistributionCenter_19,Warehouse_6
10132,New York,NY,40.780751,-73.977182,,DistributionCenter_19,Warehouse_6
10031,New York,NY,40.826201,-73.94879,,DistributionCenter_19,Warehouse_6
10257,New York,NY,40.780751,-73.977182,DistributionCenter_19,DistributionCenter_19,Warehouse_6
10020,New York,NY,40.758667,-73.98024,,DistributionCenter_19,Warehouse_6
10280,New York,NY,40.707467,-74.0178,,DistributionCenter_19,Warehouse_6
10022,New York,NY,40.759015,-73.96732,,DistributionCenter_19,Warehouse_6
10171,New York,NY,40.756099,-73.97401,,DistributionCenter_19,Warehouse_6
10111,New York,NY,40.759235,-73.97775,,DistributionCenter_19,Warehouse_6
10197,New York,NY,40.780751,-73.977182,,DistributionCenter_19,Warehouse_6
10274,New York,NY,40.780751,-73.977182,,DistributionCenter_19,Warehouse_6
10006,New York,NY,40.707904,-74.01342,,DistributionCenter_19,Warehouse_6
10196,New York,NY,40.780751,-73.977182,,DistributionCenter_19,Warehouse_6
10170,New York,NY,40.752859,-73.97608,,DistributionCenter_19,Warehouse_6
10275,New York,NY,40.780751,-73.977182,,DistributionCenter_19,Warehouse_6
10098,New York,NY,40.748181,-73.988421,,DistributionCenter_19,Warehouse_6
10115,New York,NY,40.810906,-73.96375,,DistributionCenter_19,Warehouse_6
10103,New York,NY,40.760915,-73.97785,Warehouse_7,DistributionCenter_20,Warehouse_7
10005,New York,NY,40.706019,-74.00858,,DistributionCenter_20,Warehouse_7
10249,New York,NY,40.780751,-73.977182,,DistributionCenter_20,Warehouse_7
10002,New York,NY,40.71704,-73.987,,DistributionCenter_20,Warehouse_7
10090,New York,NY,40.780751,-73.977182,,DistributionCenter_20,Warehouse_7
10156,New York,NY,40.780751,-73.977182,,DistributionCenter_20,Warehouse_7
10184,New York,NY,40.780751,-73.977182,,DistributionCenter_20,Warehouse_7
10046,New York,NY,40.780751,-73.977182,,DistributionCenter_20,Warehouse_7
10033,New York,NY,40.848764,-73.93496,DistributionCenter_20,DistributionCenter_20,Warehouse_7
11302,New York,NY,40.75945,-73.715016,,DistributionCenter_20,Warehouse_7
10019,New York,NY,40.765714,-73.9856,,DistributionCenter_21,Warehouse_7
10047,New York,NY,40.780751,-73.977182,,DistributionCenter_21,Warehouse_7
10095,New York,NY,40.748181,-73.988421,,DistributionCenter_21,Warehouse_7
10164,New York,NY,40.780751,-73.977182,,DistributionCenter_21,Warehouse_7
10015,New York,NY,40.780751,-73.977182,,DistributionCenter_21,Warehouse_7
10286,New York,NY,40.714231,-74.011895,DistributionCenter_21,DistributionCenter_21,Warehouse_7
10162,New York,NY,40.769334,-73.94893,,DistributionCenter_21,Warehouse_7
10041,New York,NY,40.703042,-74.01009,,DistributionCenter_21,Warehouse_7
10009,New York,NY,40.727093,-73.97864,,DistributionCenter_21,Warehouse_7
10260,New York,NY,40.780751,-73.977182,,DistributionCenter_21,Warehouse_7
10269,New York,NY,40.780751,-73.977182,,DistributionCenter_21,Warehouse_7
10212,New York,NY,40.780751,-73.977182,,DistributionCenter_21,Warehouse_7
10021,New York,NY,40.76842,-73.96045,,DistributionCenter_21,Warehouse_7
10101,New York,NY,40.780751,-73.977182,,DistributionCenter_21,Warehouse_7
10027,New York,NY,40.812665,-73.95499,,DistributionCenter_21,Warehouse_7
10185,New York,NY,40.780751,-73.977182,,DistributionCenter_22,Warehouse_7
10165,New York,NY,40.752354,-73.9789,,DistributionCenter_22,Warehouse_7
10282,New York,NY,40.717179,-74.01433,,DistributionCenter_22,Warehouse_7
10036,New York,NY,40.759511,-73.99019,,DistributionCenter_22,Warehouse_7
10174,New York,NY,40.751656,-73.97516,,DistributionCenter_22,Warehouse_7
10032,New York,NY,40.840686,-73.94154,DistributionCenter_22,DistributionCenter_22,Warehouse_7
10265,New York,NY,40.780751,-73.977182,,DistributionCenter_22,Warehouse_7
10179,New York,NY,40.780751,-73.977182,,DistributionCenter_22,Warehouse_7
10158,New York,NY,40.749435,-73.9758,,DistributionCenter_22,Warehouse_7
10045,New York,NY,40.70859,-74.008687,,DistributionCenter_22,Warehouse_7
10030,New York,NY,40.818151,-73.94351,,DistributionCenter_22,Warehouse_7
10285,New York,NY,40.71533,-74.016306,,DistributionCenter_22,Warehouse_7
10008,New York,NY,40.780751,-73.977182,,DistributionCenter_22,Warehouse_7
10113,New York,NY,40.780751,-73.977182,,DistributionCenter_22,Warehouse_7
10107,New York,NY,40.766429,-73.982728,,DistributionCenter_22,Warehouse_7
10087,New York,NY,40.780751,-73.977182,Warehouse_8,DistributionCenter_23,Warehouse_8
10173,New York,NY,40.754302,-73.97955,,DistributionCenter_23,Warehouse_8
11517,New York,NY,40.679845,-73.986415,,DistributionCenter_23,Warehouse_8
10133,New York,NY,40.780751,-73.977182,,DistributionCenter_23,Warehouse_8
10001,New York,NY,40.750742,-73.99653,,DistributionCenter_23,Warehouse_8
11286,New York,NY,40.658825,-74.004495,DistributionCenter_23,DistributionCenter_23,Warehouse_8
10213,New York,NY,40.780751,-73.977182,,DistributionCenter_23,Warehouse_8
10082,New York,NY,40.780751,-73.977182,,DistributionCenter_24,Warehouse_8
10028,New York,NY,40.776777,-73.9541,,DistributionCenter_24,Warehouse_8
10104,New York,NY,40.760943,-73.979908,,DistributionCenter_24,Warehouse_8
10153,New York,NY,40.763742,-73.97268,,DistributionCenter_24,Warehouse_8
10178,New York,NY,40.751378,-73.978507,,DistributionCenter_24,Warehouse_8
10043,New York,NY,40.780751,-73.977182,DistributionCenter_24,DistributionCenter_24,Warehouse_8
10167,New York,NY,40.754862,-73.97495,,DistributionCenter_24,Warehouse_8
10169,New York,NY,40.754463,-73.97606,,DistributionCenter_24,Warehouse_8
10120,New York,NY,40.750629,-73.989426,,DistributionCenter_24,Warehouse_8
10258,New York,NY,40.780751,-73.977182,Warehouse_9,DistributionCenter_25,Warehouse_9
10150,New York,NY,40.780751,-73.977182,,DistributionCenter_25,Warehouse_9
10024,New York,NY,40.786387,-73.97709,,DistributionCenter_25,Warehouse_9
10273,New York,NY,40.780751,-73.977182,,DistributionCenter_25,Warehouse_9
10079,New York,NY,40.780751,-73.977182,,DistributionCenter_25,Warehouse_9
10025,New York,NY,40.798502,-73.96811,,DistributionCenter_25,Warehouse_9
10157,New York,NY,40.780751,-73.977182,,DistributionCenter_25,Warehouse_9
10128,New York,NY,40.781894,-73.95039,,DistributionCenter_25,Warehouse_9
10270,New York,NY,40.706925,-74.008154,,DistributionCenter_25,Warehouse_9
10124,New York,NY,40.780751,-73.977182,DistributionCenter_25,DistributionCenter_25,Warehouse_9
10069,New York,NY,40.775477,-73.9905,,DistributionCenter_25,Warehouse_9
10105,New York,NY,40.762808,-73.978534,,DistributionCenter_25,Warehouse_9
10161,New York,NY,40.780751,-73.977182,,DistributionCenter_26,Warehouse_9
10272,New York,NY,40.780751,-73.977182,,DistributionCenter_26,Warehouse_9
10277,New York,NY,40.780751,-73.977182,DistributionCenter_26,DistributionCenter_26,Warehouse_9
10096,New York,NY,40.780751,-73.977182,,DistributionCenter_26,Warehouse_9
10003,New York,NY,40.732509,-73.98935,,DistributionCenter_26,Warehouse_9
10151,New York,NY,40.763419,-73.973971,,DistributionCenter_27,Warehouse_9
10271,New York,NY,40.708669,-74.01043,,DistributionCenter_27,Warehouse_9
10175,New York,NY,40.754305,-73.979782,,DistributionCenter_27,Warehouse_9
10279,New York,NY,40.713062,-74.00857,,DistributionCenter_27,Warehouse_9
10155,New York,NY,40.761104,-73.968036,DistributionCenter_27,DistributionCenter_27,Warehouse_9
10108,New York,NY,40.780751,-73.977182,,DistributionCenter_27,Warehouse_9
10112,New York,NY,40.759291,-73.97979,,DistributionCenter_27,Warehouse_9
10055,New York,NY,40.780751,-73.977182,,DistributionCenter_27,Warehouse_9
10211,New York,NY,40.780751,-73.977182,,DistributionCenter_27,Warehouse_9
2113,Boston,MA,42.365028,-71.05636,Warehouse_10,DistributionCenter_28,Warehouse_10
2209,Boston,MA,42.338947,-70.919635,,DistributionCenter_28,Warehouse_10
2110,Boston,MA,42.356532,-71.05365,,DistributionCenter_28,Warehouse_10
2121,Boston,MA,42.307448,-71.08127,DistributionCenter_28,DistributionCenter_28,Warehouse_10
2122,Boston,MA,42.296298,-71.05454,,DistributionCenter_28,Warehouse_10
2215,Boston,MA,42.346997,-71.10215,,DistributionCenter_28,Warehouse_10
2208,Boston,MA,42.338947,-70.919635,,DistributionCenter_28,Warehouse_10
2109,Boston,MA,42.361477,-71.05417,,DistributionCenter_28,Warehouse_10
2119,Boston,MA,42.324511,-71.08455,,DistributionCenter_28,Warehouse_10
2216,Boston,MA,42.338947,-70.919635,,DistributionCenter_28,Warehouse_10
2118,Boston,MA,42.338724,-71.07276,DistributionCenter_29,DistributionCenter_29,Warehouse_10
2116,Boston,MA,42.349622,-71.07372,,DistributionCenter_29,Warehouse_10
2115,Boston,MA,42.34308,-71.09268,,DistributionCenter_29,Warehouse_10
2125,Boston,MA,42.316852,-71.05811,,DistributionCenter_29,Warehouse_10
2266,Boston,MA,42.338947,-70.919635,,DistributionCenter_29,Warehouse_10
2284,Boston,MA,42.338947,-70.919635,,DistributionCenter_29,Warehouse_10
2108,Boston,MA,42.357903,-71.06408,,DistributionCenter_29,Warehouse_10
2293,Boston,MA,42.338947,-70.919635,,DistributionCenter_29,Warehouse_10
2205,Boston,MA,42.350334,-71.053877,,DistributionCenter_29,Warehouse_10
2222,Boston,MA,42.367797,-71.06282,Warehouse_11,DistributionCenter_30,Warehouse_11
2212,Boston,MA,42.446396,-71.459405,,DistributionCenter_30,Warehouse_11
2206,Boston,MA,42.338947,-70.919635,,DistributionCenter_30,Warehouse_11
2203,Boston,MA,42.361485,-71.060364,,DistributionCenter_30,Warehouse_11
2104,Boston,MA,42.338947,-70.919635,,DistributionCenter_30,Warehouse_11
2128,Boston,MA,42.378297,-71.0255,DistributionCenter_30,DistributionCenter_30,Warehouse_11
2295,Boston,MA,42.338947,-70.919635,,DistributionCenter_31,Warehouse_11
2103,Boston,MA,42.338947,-70.919635,,DistributionCenter_31,Warehouse_11
2101,Boston,MA,42.370567,-71.026964,,DistributionCenter_31,Warehouse_11
2133,Boston,MA,42.338947,-70.919635,,DistributionCenter_31,Warehouse_11
2117,Boston,MA,42.338947,-70.919635,,DistributionCenter_31,Warehouse_11
2127,Boston,MA,42.33499,-71.04562,,DistributionCenter_31,Warehouse_11
2114,Boston,MA,42.361792,-71.06774,DistributionCenter_31,DistributionCenter_31,Warehouse_11
2202,Boston,MA,42.361094,-71.061814,,DistributionCenter_32,Warehouse_11
2120,Boston,MA,42.332099,-71.09651,,DistributionCenter_32,Warehouse_11
2163,Boston,MA,42.367946,-71.12056,,DistributionCenter_32,Warehouse_11
2124,Boston,MA,42.28713,-71.07156,,DistributionCenter_32,Warehouse_11
2207,Boston,MA,42.338947,-70.919635,,DistributionCenter_32,Warehouse_11
2123,Boston,MA,42.338947,-70.919635,,DistributionCenter_32,Warehouse_11
2106,Boston,MA,42.354318,-71.073449,,DistributionCenter_32,Warehouse_11
2199,Boston,MA,42.34713,-71.08234,,DistributionCenter_32,Warehouse_11
2196,Boston,MA,42.338947,-70.919635,,DistributionCenter_32,Warehouse_11
2283,Boston,MA,42.338947,-70.919635,DistributionCenter_32,DistributionCenter_32,Warehouse_11
2112,Boston,MA,42.338947,-70.919635,,DistributionCenter_33,Warehouse_11
2217,Boston,MA,42.338947,-70.919635,,DistributionCenter_33,Warehouse_11
2241,Boston,MA,42.338947,-70.919635,,DistributionCenter_33,Warehouse_11
2204,Boston,MA,42.338947,-70.919635,,DistributionCenter_33,Warehouse_11
2102,Boston,MA,42.338947,-70.919635,,DistributionCenter_33,Warehouse_11
2105,Boston,MA,42.338947,-70.919635,,DistributionCenter_33,Warehouse_11
2107,Boston,MA,42.338947,-70.919635,,DistributionCenter_33,Warehouse_11
2210,Boston,MA,42.347974,-71.04463,,DistributionCenter_33,Warehouse_11
2297,Boston,MA,42.338947,-70.919635,,DistributionCenter_33,Warehouse_11
2201,Boston,MA,42.338947,-70.919635,,DistributionCenter_33,Warehouse_11
2211,Boston,MA,42.338947,-70.919635,,DistributionCenter_33,Warehouse_11
2111,Boston,MA,42.349838,-71.06101,DistributionCenter_33,DistributionCenter_33,Warehouse_11
90038,Los Angeles,CA,34.089459,-118.3285,Warehouse_12,DistributionCenter_34,Warehouse_12
90063,Los Angeles,CA,34.045161,-118.1865,,DistributionCenter_34,Warehouse_12
90065,Los Angeles,CA,34.107559,-118.22663,,DistributionCenter_34,Warehouse_12
90095,Los Angeles,CA,33.786594,-118.298662,,DistributionCenter_34,Warehouse_12
90013,Los Angeles,CA,34.044662,-118.24255,DistributionCenter_34,DistributionCenter_34,Warehouse_12
90011,Los Angeles,CA,34.007063,-118.25868,,DistributionCenter_35,Warehouse_12
90008,Los Angeles,CA,34.009754,-118.33705,,DistributionCenter_35,Warehouse_12
90033,Los Angeles,CA,34.050411,-118.21195,,DistributionCenter_35,Warehouse_12
90101,Los Angeles,CA,33.786594,-118.298662,DistributionCenter_35,DistributionCenter_35,Warehouse_12
90048,Los Angeles,CA,34.073759,-118.37376,,DistributionCenter_36,Warehouse_12
90047,Los Angeles,CA,33.958464,-118.30998,,DistributionCenter_36,Warehouse_12
90078,Los Angeles,CA,33.786594,-118.298662,DistributionCenter_36,DistributionCenter_36,Warehouse_12
91671,Los Angeles,CA,34.175205,-118.382212,,DistributionCenter_37,Warehouse_12
90072,Los Angeles,CA,33.786594,-118.298662,,DistributionCenter_37,Warehouse_12
90062,Los Angeles,CA,34.003213,-118.3078,,DistributionCenter_37,Warehouse_12
90097,Los Angeles,CA,33.786594,-118.298662,,DistributionCenter_37,Warehouse_12
90060,Los Angeles,CA,33.786594,-118.298662,,DistributionCenter_37,Warehouse_12
90774,Los Angeles,CA,33.783038,-118.238683,DistributionCenter_37,DistributionCenter_37,Warehouse_12
90076,Los Angeles,CA,33.786594,-118.298662,,DistributionCenter_37,Warehouse_12
90032,Los Angeles,CA,34.08166,-118.17568,Warehouse_13,DistributionCenter_38,Warehouse_13
90080,Los Angeles,CA,33.786594,-118.298662,,DistributionCenter_38,Warehouse_13
90077,Los Angeles,CA,34.101007,-118.45077,,DistributionCenter_38,Warehouse_13
90051,Los Angeles,CA,33.786594,-118.298662,,DistributionCenter_38,Warehouse_13
90052,Los Angeles,CA,33.786594,-118.298662,,DistributionCenter_38,Warehouse_13
90006,Los Angeles,CA,34.048351,-118.2943,,DistributionCenter_38,Warehouse_13
90035,Los Angeles,CA,34.05266,-118.38531,DistributionCenter_38,DistributionCenter_38,Warehouse_13
90056,Los Angeles,CA,33.986212,-118.37099,,DistributionCenter_38,Warehouse_13
90022,Los Angeles,CA,34.023662,-118.15581,,DistributionCenter_38,Warehouse_13
90034,Los Angeles,CA,34.03056,-118.39804,,DistributionCenter_38,Warehouse_13
90020,Los Angeles,CA,34.06646,-118.30863,,DistributionCenter_38,Warehouse_13
90057,Los Angeles,CA,34.061911,-118.27687,,DistributionCenter_38,Warehouse_13
90093,Los Angeles,CA,33.786594,-118.298662,,DistributionCenter_38,Warehouse_13
90043,Los Angeles,CA,33.987463,-118.334,,DistributionCenter_38,Warehouse_13
90026,Los Angeles,CA,34.07851,-118.26596,,DistributionCenter_38,Warehouse_13
90059,Los Angeles,CA,33.927471,-118.24778,,DistributionCenter_38,Warehouse_13
90089,Los Angeles,CA,33.786594,-118.298662,,DistributionCenter_39,Warehouse_13
90096,Los Angeles,CA,33.786594,-118.298662,DistributionCenter_39,DistributionCenter_39,Warehouse_13
90037,Los Angeles,CA,34.002063,-118.28737,,DistributionCenter_39,Warehouse_13
90088,Los Angeles,CA,33.786594,-118.298662,,DistributionCenter_39,Warehouse_13
90027,Los Angeles,CA,34.111208,-118.28842,,DistributionCenter_39,Warehouse_13
90042,Los Angeles,CA,34.114558,-118.19233,,DistributionCenter_39,Warehouse_13
90068,Los Angeles,CA,34.122058,-118.3379,,DistributionCenter_39,Warehouse_13
90071,Los Angeles,CA,34.052709,-118.2559,,DistributionCenter_40,Warehouse_13
90081,Los Angeles,CA,33.786594,-118.298662,DistributionCenter_40,DistributionCenter_40,Warehouse_13
90010,Los Angeles,CA,34.062709,-118.31481,,DistributionCenter_40,Warehouse_13
90046,Los Angeles,CA,34.098908,-118.36241,,DistributionCenter_40,Warehouse_13
90009,Los Angeles,CA,33.786594,-118.298662,,DistributionCenter_40,Warehouse_13
90005,Los Angeles,CA,34.058911,-118.30848,,DistributionCenter_40,Warehouse_13
90086,Los Angeles,CA,33.786594,-118.298662,,DistributionCenter_40,Warehouse_13
90003,Los Angeles,CA,33.962714,-118.276,,DistributionCenter_40,Warehouse_13
90001,Los Angeles,CA,33.972914,-118.24878,,DistributionCenter_40,Warehouse_13
90067,Los Angeles,CA,34.056709,-118.41183,,DistributionCenter_41,Warehouse_13
90049,Los Angeles,CA,34.067409,-118.47528,DistributionCenter_41,DistributionCenter_41,Warehouse_13
90002,Los Angeles,CA,33.948315,-118.24845,,DistributionCenter_41,Warehouse_13
90084,Los Angeles,CA,33.786594,-118.298662,,DistributionCenter_41,Warehouse_13
90036,Los Angeles,CA,34.07036,-118.34926,,DistributionCenter_41,Warehouse_13
90094,Los Angeles,CA,33.786594,-118.298662,,DistributionCenter_41,Warehouse_13
90079,Los Angeles,CA,33.786594,-118.298662,,DistributionCenter_41,Warehouse_13
90091,Los Angeles,CA,33.786594,-118.298662,,DistributionCenter_41,Warehouse_13
90024,Los Angeles,CA,34.063209,-118.43643,Warehouse_14,DistributionCenter_42,Warehouse_14
90055,Los Angeles,CA,33.786594,-118.298662,,DistributionCenter_42,Warehouse_14
90064,Los Angeles,CA,34.03457,-118.42843,,DistributionCenter_42,Warehouse_14
90082,Los Angeles,CA,33.786594,-118.298662,,DistributionCenter_42,Warehouse_14
90025,Los Angeles,CA,34.045006,-118.44527,DistributionCenter_42,DistributionCenter_42,Warehouse_14
90030,Los Angeles,CA,33.786594,-118.298662,,DistributionCenter_42,Warehouse_14
90103,Los Angeles,CA,33.786594,-118.298662,,DistributionCenter_42,Warehouse_14
90050,Los Angeles,CA,33.786594,-118.298662,,DistributionCenter_43,Warehouse_14
90007,Los Angeles,CA,34.026448,-118.2829,,DistributionCenter_43,Warehouse_14
90083,Los Angeles,CA,33.786594,-118.298662,,DistributionCenter_43,Warehouse_14
90061,Los Angeles,CA,33.923365,-118.27591,,DistributionCenter_43,Warehouse_14
90018,Los Angeles,CA,34.029112,-118.3183,,DistributionCenter_43,Warehouse_14
90029,Los Angeles,CA,34.090259,-118.29455,,DistributionCenter_43,Warehouse_14
90016,Los Angeles,CA,34.029711,-118.35255,,DistributionCenter_43,Warehouse_14
90044,Los Angeles,CA,33.953814,-118.29158,,DistributionCenter_43,Warehouse_14
90045,Los Angeles,CA,33.960041,-118.3949,DistributionCenter_43,DistributionCenter_43,Warehouse_14
90099,Los Angeles,CA,33.786594,-118.298662,,DistributionCenter_43,Warehouse_14
90040,Los Angeles,CA,33.997492,-118.15284,,DistributionCenter_43,Warehouse_14
90031,Los Angeles,CA,34.07871,-118.2161,,DistributionCenter_44,Warehouse_14
90023,Los Angeles,CA,34.023039,-118.20231,,DistributionCenter_44,Warehouse_14
90021,Los Angeles,CA,34.029313,-118.24182,,DistributionCenter_44,Warehouse_14
90174,Los Angeles,CA,33.786594,-118.298662,,DistributionCenter_44,Warehouse_14
90012,Los Angeles,CA,34.061611,-118.23944,,DistributionCenter_44,Warehouse_14
90015,Los Angeles,CA,34.038993,-118.26516,DistributionCenter_44,DistributionCenter_44,Warehouse_14
90014,Los Angeles,CA,34.042912,-118.25193,,DistributionCenter_45,Warehouse_14
90074,Los Angeles,CA,33.786594,-118.298662,,DistributionCenter_45,Warehouse_14
90087,Los Angeles,CA,33.786594,-118.298662,,DistributionCenter_45,Warehouse_14
90017,Los Angeles,CA,34.052561,-118.26434,,DistributionCenter_45,Warehouse_14
90053,Los Angeles,CA,33.786594,-118.298662,,DistributionCenter_45,Warehouse_14
90039,Los Angeles,CA,34.110425,-118.25832,DistributionCenter_45,DistributionCenter_45,Warehouse_14
90070,Los Angeles,CA,33.786594,-118.298662,,DistributionCenter_45,Warehouse_14
90041,Los Angeles,CA,34.137557,-118.20765,,DistributionCenter_45,Warehouse_14
90004,Los Angeles,CA,34.07711,-118.30755,,DistributionCenter_46,Warehouse_14
90019,Los Angeles,CA,34.048411,-118.34015,,DistributionCenter_46,Warehouse_14
90058,Los Angeles,CA,34.000219,-118.22605,,DistributionCenter_46,Warehouse_14
90185,Los Angeles,CA,33.786594,-118.298662,,DistributionCenter_46,Warehouse_14
90066,Los Angeles,CA,34.002011,-118.43083,DistributionCenter_46,DistributionCenter_46,Warehouse_14
90028,Los Angeles,CA,34.098859,-118.32745,,DistributionCenter_46,Warehouse_14
90075,Los Angeles,CA,33.786594,-118.298662,,DistributionCenter_46,Warehouse_14
90073,Los Angeles,CA,33.786594,-118.298662,,DistributionCenter_46,Warehouse_14
90102,Los Angeles,CA,33.786594,-118.298662,,DistributionCenter_46,Warehouse_14
33233,Miami,FL,25.558428,-80.458168,Warehouse_15,DistributionCenter_47,Warehouse_15
33296,Miami,FL,25.558428,-80.458168,,DistributionCenter_47,Warehouse_15
33168,Miami,FL,25.892185,-80.21032,,DistributionCenter_47,Warehouse_15
33148,Miami,FL,25.558428,-80.458168,,DistributionCenter_47,Warehouse_15
33110,Miami,FL,25.846874,-80.20827,,DistributionCenter_47,Warehouse_15
33197,Miami,FL,25.558428,-80.458168,,DistributionCenter_47,Warehouse_15
33183,Miami,FL,25.699968,-80.40811,DistributionCenter_47,DistributionCenter_47,Warehouse_15
33102,Miami,FL,25.558428,-80.458168,,DistributionCenter_48,Warehouse_15
33165,Miami,FL,25.734828,-80.3583,,DistributionCenter_48,Warehouse_15
33131,Miami,FL,25.767368,-80.1893,,DistributionCenter_48,Warehouse_15
33257,Miami,FL,25.558428,-80.458168,DistributionCenter_48,DistributionCenter_48,Warehouse_15
33177,Miami,FL,25.595983,-80.40234,,DistributionCenter_49,Warehouse_15
33243,Miami,FL,25.558428,-80.458168,,DistributionCenter_49,Warehouse_15
33174,Miami,FL,25.763044,-80.35919,DistributionCenter_49,DistributionCenter_49,Warehouse_15
33172,Miami,FL,25.786634,-80.36151,,DistributionCenter_50,Warehouse_15
33184,Miami,FL,25.759184,-80.40773,,DistributionCenter_50,Warehouse_15
33192,Miami,FL,25.558428,-80.458168,DistributionCenter_50,DistributionCenter_50,Warehouse_15
33127,Miami,FL,25.813808,-80.2058,,DistributionCenter_50,Warehouse_15
33299,Miami,FL,25.558428,-80.458168,,DistributionCenter_50,Warehouse_15
33187,Miami,FL,25.596234,-80.4765,Warehouse_16,DistributionCenter_51,Warehouse_16
33153,Miami,FL,25.865523,-80.193619,,DistributionCenter_51,Warehouse_16
33175,Miami,FL,25.733204,-80.41197,,DistributionCenter_51,Warehouse_16
33242,Miami,FL,25.558428,-80.458168,,DistributionCenter_51,Warehouse_16
33152,Miami,FL,25.795476,-80.312873,,DistributionCenter_51,Warehouse_16
33111,Miami,FL,25.558428,-80.458168,DistributionCenter_51,DistributionCenter_51,Warehouse_16
33269,Miami,FL,25.558428,-80.458168,,DistributionCenter_51,Warehouse_16
33247,Miami,FL,25.558428,-80.458168,,DistributionCenter_51,Warehouse_16
33143,Miami,FL,25.702929,-80.29642,,DistributionCenter_52,Warehouse_16
33146,Miami,FL,25.720728,-80.27255,,DistributionCenter_52,Warehouse_16
33124,Miami,FL,25.558428,-80.458168,,DistributionCenter_52,Warehouse_16
33188,Miami,FL,25.558428,-80.458168,DistributionCenter_52,DistributionCenter_52,Warehouse_16
33283,Miami,FL,25.558428,-80.458168,,DistributionCenter_52,Warehouse_16
33161,Miami,FL,25.893372,-80.18164,,DistributionCenter_52,Warehouse_16
33261,Miami,FL,25.558428,-80.458168,,DistributionCenter_53,Warehouse_16
33238,Miami,FL,25.558428,-80.458168,,DistributionCenter_53,Warehouse_16
33133,Miami,FL,25.730678,-80.2441,DistributionCenter_53,DistributionCenter_53,Warehouse_16
33255,Miami,FL,25.558428,-80.458168,,DistributionCenter_53,Warehouse_16
33116,Miami,FL,25.558428,-80.458168,,DistributionCenter_53,Warehouse_16
33114,Miami,FL,25.558428,-80.458168,,DistributionCenter_54,Warehouse_16
33179,Miami,FL,25.95872,-80.17941,,DistributionCenter_54,Warehouse_16
33196,Miami,FL,25.650232,-80.45925,,DistributionCenter_54,Warehouse_16
33166,Miami,FL,25.824725,-80.30476,DistributionCenter_54,DistributionCenter_54,Warehouse_16
33181,Miami,FL,25.897372,-80.16048,,DistributionCenter_54,Warehouse_16
33173,Miami,FL,25.702429,-80.36184,,DistributionCenter_54,Warehouse_16
33190,Miami,FL,25.56071,-80.3494,,DistributionCenter_54,Warehouse_16
33231,Miami,FL,25.558428,-80.458168,,DistributionCenter_54,Warehouse_16
33121,Miami,FL,25.558428,-80.458168,,DistributionCenter_54,Warehouse_16
33245,Miami,FL,25.558428,-80.458168,,DistributionCenter_55,Warehouse_16
33265,Miami,FL,25.558428,-80.458168,,DistributionCenter_55,Warehouse_16
33138,Miami,FL,25.853184,-80.18622,DistributionCenter_55,DistributionCenter_55,Warehouse_16
33128,Miami,FL,25.777143,-80.20225,,DistributionCenter_55,Warehouse_16
33193,Miami,FL,25.70028,-80.44721,,DistributionCenter_55,Warehouse_16
33122,Miami,FL,25.799962,-80.31775,,DistributionCenter_55,Warehouse_16
33125,Miami,FL,25.782176,-80.23607,,DistributionCenter_55,Warehouse_16
33195,Miami,FL,25.772876,-80.187019,,DistributionCenter_56,Warehouse_16
33151,Miami,FL,25.832074,-80.20942,,DistributionCenter_56,Warehouse_16
33194,Miami,FL,25.745549,-80.4651,DistributionCenter_56,DistributionCenter_56,Warehouse_16
33150,Miami,FL,25.851974,-80.20566,,DistributionCenter_56,Warehouse_16
33234,Miami,FL,25.558428,-80.458168,,DistributionCenter_56,Warehouse_16
33107,Miami,FL,25.558428,-80.458168,Warehouse_17,DistributionCenter_57,Warehouse_17
33142,Miami,FL,25.812625,-80.2369,,DistributionCenter_57,Warehouse_17
33162,Miami,FL,25.929571,-80.17839,,DistributionCenter_57,Warehouse_17
33189,Miami,FL,25.574834,-80.3467,,DistributionCenter_57,Warehouse_17
33135,Miami,FL,25.766577,-80.23576,DistributionCenter_57,DistributionCenter_57,Warehouse_17
33144,Miami,FL,25.76226,-80.30839,,DistributionCenter_57,Warehouse_17
33145,Miami,FL,25.753177,-80.23327,,DistributionCenter_57,Warehouse_17
33155,Miami,FL,25.739011,-80.30685,,DistributionCenter_58,Warehouse_17
33158,Miami,FL,25.637132,-80.31641,,DistributionCenter_58,Warehouse_17
33157,Miami,FL,25.606583,-80.34859,DistributionCenter_58,DistributionCenter_58,Warehouse_17
33132,Miami,FL,25.784326,-80.18753,,DistributionCenter_58,Warehouse_17
33176,Miami,FL,25.653431,-80.35999,,DistributionCenter_59,Warehouse_17
33199,Miami,FL,25.558428,-80.458168,,DistributionCenter_59,Warehouse_17
33167,Miami,FL,25.885739,-80.23264,,DistributionCenter_59,Warehouse_17
33186,Miami,FL,25.662292,-80.40947,,DistributionCenter_59,Warehouse_17
33154,Miami,FL,25.881391,-80.1276,DistributionCenter_59,DistributionCenter_59,Warehouse_17
33136,Miami,FL,25.786326,-80.2029,,DistributionCenter_59,Warehouse_17
33129,Miami,FL,25.757227,-80.20656,,DistributionCenter_59,Warehouse_17
33170,Miami,FL,25.559785,-80.41664,,DistributionCenter_59,Warehouse_17
33280,Miami,FL,25.558428,-80.458168,,DistributionCenter_59,Warehouse_17
33130,Miami,FL,25.768277,-80.20339,,DistributionCenter_60,Warehouse_17
33163,Miami,FL,25.94497,-80.21452,,DistributionCenter_60,Warehouse_17
33180,Miami,FL,25.962069,-80.14465,DistributionCenter_60,DistributionCenter_60,Warehouse_17
33156,Miami,FL,25.66558,-80.30688,,DistributionCenter_60,Warehouse_17
33185,Miami,FL,25.723173,-80.43995,,DistributionCenter_60,Warehouse_17
33256,Miami,FL,25.558428,-80.458168,,DistributionCenter_60,Warehouse_17
33164,Miami,FL,25.558428,-80.458168,,DistributionCenter_60,Warehouse_17
33126,Miami,FL,25.777977,-80.29718,,DistributionCenter_61,Warehouse_17
33101,Miami,FL,25.779076,-80.19782,,DistributionCenter_61,Warehouse_17
33134,Miami,FL,25.753927,-80.27034,DistributionCenter_61,DistributionCenter_61,Warehouse_17
33182,Miami,FL,25.781127,-80.40467,,DistributionCenter_61,Warehouse_17
33137,Miami,FL,25.817325,-80.19046,,DistributionCenter_61,Warehouse_17
33178,Miami,FL,25.837696,-80.36947,,DistributionCenter_62,Warehouse_17
33169,Miami,FL,25.94267,-80.21276,,DistributionCenter_62,Warehouse_17
33159,Miami,FL,25.558428,-80.458168,DistributionCenter_62,DistributionCenter_62,Warehouse_17
33147,Miami,FL,25.850124,-80.23773,,DistributionCenter_62,Warehouse_17
33266,Miami,FL,25.558428,-80.458168,,DistributionCenter_62,Warehouse_17
75294,Dallas,TX,32.767268,-96.777626,Warehouse_18,DistributionCenter_63,Warehouse_18
75255,Dallas,TX,32.669783,-96.614921,,DistributionCenter_63,Warehouse_18
75374,Dallas,TX,32.767268,-96.777626,,DistributionCenter_63,Warehouse_18
75252,Dallas,TX,32.998132,-96.79088,,DistributionCenter_63,Warehouse_18
75275,Dallas,TX,32.767268,-96.777626,,DistributionCenter_63,Warehouse_18
75202,Dallas,TX,32.77988,-96.80502,,DistributionCenter_63,Warehouse_18
75392,Dallas,TX,32.767268,-96.777626,DistributionCenter_63,DistributionCenter_63,Warehouse_18
75355,Dallas,TX,32.767268,-96.777626,,DistributionCenter_64,Warehouse_18
75389,Dallas,TX,32.767268,-96.777626,,DistributionCenter_64,Warehouse_18
75356,Dallas,TX,32.767268,-96.777626,,DistributionCenter_64,Warehouse_18
75270,Dallas,TX,32.78133,-96.80198,DistributionCenter_64,DistributionCenter_64,Warehouse_18
75220,Dallas,TX,32.867977,-96.86306,,DistributionCenter_65,Warehouse_18
75234,Dallas,TX,32.925975,-96.88322,,DistributionCenter_65,Warehouse_18
75368,Dallas,TX,32.767268,-96.777626,,DistributionCenter_65,Warehouse_18
75215,Dallas,TX,32.76103,-96.77035,,DistributionCenter_65,Warehouse_18
75231,Dallas,TX,32.874317,-96.74764,DistributionCenter_65,DistributionCenter_65,Warehouse_18
75251,Dallas,TX,32.919104,-96.77497,,DistributionCenter_65,Warehouse_18
75382,Dallas,TX,32.767268,-96.777626,,DistributionCenter_65,Warehouse_18
75373,Dallas,TX,32.767268,-96.777626,,DistributionCenter_65,Warehouse_18
75379,Dallas,TX,32.767268,-96.777626,Warehouse_19,DistributionCenter_66,Warehouse_19
75214,Dallas,TX,32.825628,-96.74872,,DistributionCenter_66,Warehouse_19
75210,Dallas,TX,32.77103,-96.74732,,DistributionCenter_66,Warehouse_19
75246,Dallas,TX,32.791878,-96.77365,,DistributionCenter_66,Warehouse_19
75363,Dallas,TX,32.767268,-96.777626,DistributionCenter_66,DistributionCenter_66,Warehouse_19
75393,Dallas,TX,32.767268,-96.777626,,DistributionCenter_66,Warehouse_19
75216,Dallas,TX,32.710082,-96.7972,,DistributionCenter_67,Warehouse_19
75326,Dallas,TX,32.767268,-96.777626,,DistributionCenter_67,Warehouse_19
75238,Dallas,TX,32.873926,-96.70922,DistributionCenter_67,DistributionCenter_67,Warehouse_19
75242,Dallas,TX,32.767268,-96.777626,,DistributionCenter_67,Warehouse_19
75250,Dallas,TX,32.767268,-96.777626,,DistributionCenter_67,Warehouse_19
75247,Dallas,TX,32.817978,-96.87928,,DistributionCenter_68,Warehouse_19
75207,Dallas,TX,32.78643,-96.81992,,DistributionCenter_68,Warehouse_19
75263,Dallas,TX,32.767268,-96.777626,,DistributionCenter_68,Warehouse_19
75285,Dallas,TX,32.767268,-96.777626,,DistributionCenter_68,Warehouse_19
75223,Dallas,TX,32.792879,-96.74918,DistributionCenter_68,DistributionCenter_68,Warehouse_19
75287,Dallas,TX,32.998786,-96.84436,,DistributionCenter_69,Warehouse_19
75336,Dallas,TX,32.767268,-96.777626,,DistributionCenter_69,Warehouse_19
75323,Dallas,TX,32.767268,-96.777626,,DistributionCenter_69,Warehouse_19
75232,Dallas,TX,32.664034,-96.83886,,DistributionCenter_69,Warehouse_19
75376,Dallas,TX,32.767268,-96.777626,DistributionCenter_69,DistributionCenter_69,Warehouse_19
75283,Dallas,TX,32.767268,-96.777626,,DistributionCenter_69,Warehouse_19
75240,Dallas,TX,32.938774,-96.78543,,DistributionCenter_69,Warehouse_19
75381,Dallas,TX,32.767268,-96.777626,,DistributionCenter_70,Warehouse_19
75388,Dallas,TX,32.767268,-96.777626,,DistributionCenter_70,Warehouse_19
75212,Dallas,TX,32.78238,-96.86945,,DistributionCenter_70,Warehouse_19
75245,Dallas,TX,32.922499,-96.535191,DistributionCenter_70,DistributionCenter_70,Warehouse_19
75204,Dallas,TX,32.800333,-96.78952,,DistributionCenter_70,Warehouse_19
75226,Dallas,TX,32.783978,-96.77662,,DistributionCenter_70,Warehouse_19
75353,Dallas,TX,32.767268,-96.777626,,DistributionCenter_71,Warehouse_19
75264,Dallas,TX,32.767268,-96.777626,,DistributionCenter_71,Warehouse_19
75205,Dallas,TX,32.836094,-96.79524,,DistributionCenter_71,Warehouse_19
75301,Dallas,TX,32.767268,-96.777626,,DistributionCenter_71,Warehouse_19
75230,Dallas,TX,32.901176,-96.79054,,DistributionCenter_71,Warehouse_19
75254,Dallas,TX,32.946069,-96.794496,DistributionCenter_71,DistributionCenter_71,Warehouse_19
75364,Dallas,TX,32.767268,-96.777626,,DistributionCenter_71,Warehouse_19
75221,Dallas,TX,32.814728,-96.787725,,DistributionCenter_71,Warehouse_19
75237,Dallas,TX,32.666984,-96.87633,,DistributionCenter_71,Warehouse_19
75398,Dallas,TX,32.767268,-96.777626,,DistributionCenter_71,Warehouse_19
75357,Dallas,TX,32.767268,-96.777626,,DistributionCenter_71,Warehouse_19
75219,Dallas,TX,32.812462,-96.81412,Warehouse_20,DistributionCenter_72,Warehouse_20
75315,Dallas,TX,32.767268,-96.777626,,DistributionCenter_72,Warehouse_20
75228,Dallas,TX,32.825227,-96.67955,,DistributionCenter_72,Warehouse_20
75387,Dallas,TX,32.767268,-96.777626,,DistributionCenter_72,Warehouse_20
75359,Dallas,TX,32.767268,-96.777626,,DistributionCenter_72,Warehouse_20
75262,Dallas,TX,32.767268,-96.777626,DistributionCenter_72,DistributionCenter_72,Warehouse_20
75386,Dallas,TX,32.767268,-96.777626,,DistributionCenter_73,Warehouse_20
75239,Dallas,TX,32.767268,-96.777626,,DistributionCenter_73,Warehouse_20
75222,Dallas,TX,32.767268,-96.777626,,DistributionCenter_73,Warehouse_20
75390,Dallas,TX,32.767268,-96.777626,,DistributionCenter_73,Warehouse_20
75260,Dallas,TX,32.767268,-96.777626,,DistributionCenter_73,Warehouse_20
75229,Dallas,TX,32.895376,-96.85985,DistributionCenter_73,DistributionCenter_73,Warehouse_20
75397,Dallas,TX,32.767268,-96.777626,,DistributionCenter_73,Warehouse_20
75206,Dallas,TX,32.826128,-96.7712,,DistributionCenter_73,Warehouse_20
75235,Dallas,TX,32.828128,-96.84612,,DistributionCenter_73,Warehouse_20
75209,Dallas,TX,32.845978,-96.82552,,DistributionCenter_74,Warehouse_20
75360,Dallas,TX,32.767268,-96.777626,,DistributionCenter_74,Warehouse_20
75201,Dallas,TX,32.787629,-96.79941,,DistributionCenter_74,Warehouse_20
75350,Dallas,TX,32.767268,-96.777626,,DistributionCenter_74,Warehouse_20
75342,Dallas,TX,32.767268,-96.777626,DistributionCenter_74,DistributionCenter_74,Warehouse_20
75346,Dallas,TX,32.767268,-96.777626,,DistributionCenter_74,Warehouse_20
75378,Dallas,TX,32.767268,-96.777626,,DistributionCenter_74,Warehouse_20
75249,Dallas,TX,32.639661,-96.95317,,DistributionCenter_75,Warehouse_20
75236,Dallas,TX,32.685533,-96.91746,,DistributionCenter_75,Warehouse_20
75284,Dallas,TX,32.767268,-96.777626,,DistributionCenter_75,Warehouse_20
75367,Dallas,TX,32.767268,-96.777626,,DistributionCenter_75,Warehouse_20
75248,Dallas,TX,32.968123,-96.78863,,DistributionCenter_75,Warehouse_20
75265,Dallas,TX,32.767268,-96.777626,,DistributionCenter_75,Warehouse_20
75267,Dallas,TX,32.767268,-96.777626,DistributionCenter_75,DistributionCenter_75,Warehouse_20
75225,Dallas,TX,32.862876,-96.7904,,DistributionCenter_75,Warehouse_20
75258,Dallas,TX,32.767268,-96.777626,,DistributionCenter_75,Warehouse_20
75208,Dallas,TX,32.751464,-96.83864,,DistributionCenter_75,Warehouse_20
75313,Dallas,TX,32.767268,-96.777626,,DistributionCenter_75,Warehouse_20
75217,Dallas,TX,32.72238,-96.67582,,DistributionCenter_75,Warehouse_20
75354,Dallas,TX,32.767268,-96.777626,Warehouse_21,DistributionCenter_76,Warehouse_21
75396,Dallas,TX,32.767268,-96.777626,,DistributionCenter_76,Warehouse_21
75370,Dallas,TX,32.767268,-96.777626,DistributionCenter_76,DistributionCenter_76,Warehouse_21
75371,Dallas,TX,32.767268,-96.777626,,DistributionCenter_76,Warehouse_21
75310,Dallas,TX,32.767268,-96.777626,,DistributionCenter_77,Warehouse_21
75295,Dallas,TX,32.767268,-96.777626,,DistributionCenter_77,Warehouse_21
75233,Dallas,TX,32.704398,-96.87222,,DistributionCenter_77,Warehouse_21
75320,Dallas,TX,32.767268,-96.777626,,DistributionCenter_77,Warehouse_21
75380,Dallas,TX,32.767268,-96.777626,,DistributionCenter_77,Warehouse_21
75277,Dallas,TX,32.767268,-96.777626,DistributionCenter_77,DistributionCenter_77,Warehouse_21
75227,Dallas,TX,32.77003,-96.69,,DistributionCenter_77,Warehouse_21
75243,Dallas,TX,32.912225,-96.73688,,DistributionCenter_78,Warehouse_21
75339,Dallas,TX,32.767268,-96.777626,,DistributionCenter_78,Warehouse_21
75394,Dallas,TX,32.767268,-96.777626,,DistributionCenter_78,Warehouse_21
75312,Dallas,TX,32.767268,-96.777626,,DistributionCenter_78,Warehouse_21
75224,Dallas,TX,32.716065,-96.83987,DistributionCenter_78,DistributionCenter_78,Warehouse_21
75303,Dallas,TX,32.767268,-96.777626,,DistributionCenter_78,Warehouse_21
75241,Dallas,TX,32.669383,-96.77439,,DistributionCenter_78,Warehouse_21
75286,Dallas,TX,32.767268,-96.777626,,DistributionCenter_78,Warehouse_21
75244,Dallas,TX,32.922624,-96.83616,Warehouse_22,DistributionCenter_79,Warehouse_22
75253,Dallas,TX,32.679924,-96.60367,,DistributionCenter_79,Warehouse_22
75261,Dallas,TX,32.767268,-96.777626,,DistributionCenter_79,Warehouse_22
75211,Dallas,TX,32.736931,-96.88253,DistributionCenter_79,DistributionCenter_79,Warehouse_22
75218,Dallas,TX,32.842726,-96.69937,,DistributionCenter_79,Warehouse_22
75372,Dallas,TX,32.767268,-96.777626,,DistributionCenter_80,Warehouse_22
75395,Dallas,TX,32.767268,-96.777626,,DistributionCenter_80,Warehouse_22
75391,Dallas,TX,32.767268,-96.777626,,DistributionCenter_80,Warehouse_22
75203,Dallas,TX,32.745831,-96.80672,DistributionCenter_80,DistributionCenter_80,Warehouse_22
75266,Dallas,TX,32.767268,-96.777626,,DistributionCenter_80,Warehouse_22
37217,Nashville,TN,36.103408,-86.66616,,DistributionCenter_81,Warehouse_2
37245,Nashville,TN,36.186605,-86.785248,,DistributionCenter_81,Warehouse_2
37238,Nashville,TN,36.186605,-86.785248,,DistributionCenter_81,Warehouse_2
37224,Nashville,TN,36.186605,-86.785248,,DistributionCenter_81,Warehouse_2
37205,Nashville,TN,36.113558,-86.86207,,DistributionCenter_81,Warehouse_2
37229,Nashville,TN,36.186605,-86.785248,DistributionCenter_81,DistributionCenter_81,Warehouse_2
37204,Nashville,TN,36.112058,-86.77626,,DistributionCenter_81,Warehouse_2
37208,Nashville,TN,36.174806,-86.80252,,DistributionCenter_81,Warehouse_2
37247,Nashville,TN,36.186605,-86.785248,,DistributionCenter_82,Warehouse_2
37211,Nashville,TN,36.079259,-86.72584,,DistributionCenter_82,Warehouse_2
37236,Nashville,TN,36.186605,-86.785248,,DistributionCenter_82,Warehouse_2
37207,Nashville,TN,36.215535,-86.77317,,DistributionCenter_82,Warehouse_2
37230,Nashville,TN,36.186605,-86.785248,,DistributionCenter_82,Warehouse_2
37201,Nashville,TN,36.164556,-86.77738,DistributionCenter_82,DistributionCenter_82,Warehouse_2
37232,Nashville,TN,36.186605,-86.785248,,DistributionCenter_82,Warehouse_2
37243,Nashville,TN,36.167606,-86.784498,,DistributionCenter_82,Warehouse_2
37235,Nashville,TN,36.186605,-86.785248,,DistributionCenter_82,Warehouse_2
37242,Nashville,TN,36.186605,-86.785248,,DistributionCenter_83,Warehouse_2
37241,Nashville,TN,36.186605,-86.785248,,DistributionCenter_83,Warehouse_2
37203,Nashville,TN,36.152607,-86.78927,,DistributionCenter_83,Warehouse_2
37221,Nashville,TN,36.065032,-86.94674,DistributionCenter_83,DistributionCenter_83,Warehouse_2
37222,Nashville,TN,36.056164,-86.980116,,DistributionCenter_83,Warehouse_2
37244,Nashville,TN,36.186605,-86.785248,,DistributionCenter_83,Warehouse_2
37212,Nashville,TN,36.133251,-86.80057,,DistributionCenter_84,Warehouse_2
37216,Nashville,TN,36.213004,-86.72594,,DistributionCenter_84,Warehouse_2
37202,Nashville,TN,36.340304,-86.827254,,DistributionCenter_84,Warehouse_2
37246,Nashville,TN,36.158606,-86.789998,DistributionCenter_84,DistributionCenter_84,Warehouse_2
37239,Nashville,TN,36.186605,-86.785248,,DistributionCenter_84,Warehouse_2
37240,Nashville,TN,36.186605,-86.785248,,DistributionCenter_84,Warehouse_2
37209,Nashville,TN,36.151324,-86.8559,,DistributionCenter_85,Warehouse_2
37213,Nashville,TN,36.167179,-86.76777,DistributionCenter_85,DistributionCenter_85,Warehouse_2
37206,Nashville,TN,36.180806,-86.74176,,DistributionCenter_85,Warehouse_2
37250,Nashville,TN,36.186605,-86.785248,,DistributionCenter_85,Warehouse_2
37227,Nashville,TN,36.186605,-86.785248,,DistributionCenter_85,Warehouse_2
37210,Nashville,TN,36.140857,-86.74437,,DistributionCenter_85,Warehouse_3
37228,Nashville,TN,36.190205,-86.80078,,DistributionCenter_86,Warehouse_3
37237,Nashville,TN,36.186605,-86.785248,DistributionCenter_86,DistributionCenter_86,Warehouse_3
37215,Nashville,TN,36.098408,-86.82522,,DistributionCenter_86,Warehouse_3
37249,Nashville,TN,36.186605,-86.785248,,DistributionCenter_86,Warehouse_3
37234,Nashville,TN,36.186605,-86.785248,,DistributionCenter_86,Warehouse_3
37218,Nashville,TN,36.206755,-86.85215,,DistributionCenter_87,Warehouse_3
37214,Nashville,TN,36.166956,-86.66869,DistributionCenter_87,DistributionCenter_87,Warehouse_3
37220,Nashville,TN,36.069659,-86.77266,,DistributionCenter_87,Warehouse_3
37219,Nashville,TN,36.166806,-86.78172,,DistributionCenter_87,Warehouse_3
31150,Atlanta,GA,33.844371,-84.47405,,DistributionCenter_88,Warehouse_16
30334,Atlanta,GA,33.702657,-84.439127,,DistributionCenter_88,Warehouse_16
30384,Atlanta,GA,33.844371,-84.47405,,DistributionCenter_88,Warehouse_16
30339,Atlanta,GA,33.87507,-84.46615,,DistributionCenter_88,Warehouse_16
30354,Atlanta,GA,33.658834,-84.39682,,DistributionCenter_88,Warehouse_16
30364,Atlanta,GA,33.844371,-84.47405,,DistributionCenter_88,Warehouse_16
30370,Atlanta,GA,33.844371,-84.47405,DistributionCenter_88,DistributionCenter_88,Warehouse_16
30335,Atlanta,GA,33.752406,-84.389676,,DistributionCenter_89,Warehouse_16
30303,Atlanta,GA,33.752856,-84.39013,,DistributionCenter_89,Warehouse_16
31139,Atlanta,GA,33.844371,-84.47405,,DistributionCenter_89,Warehouse_16
31131,Atlanta,GA,33.844371,-84.47405,,DistributionCenter_89,Warehouse_16
30312,Atlanta,GA,33.745739,-84.3764,,DistributionCenter_89,Warehouse_16
30881,Atlanta,GA,33.793006,-84.504081,DistributionCenter_89,DistributionCenter_89,Warehouse_16
30322,Atlanta,GA,33.793754,-84.3238,,DistributionCenter_89,Warehouse_16
30316,Atlanta,GA,33.729506,-84.34087,,DistributionCenter_89,Warehouse_16
30380,Atlanta,GA,33.844371,-84.47405,,DistributionCenter_89,Warehouse_16
30379,Atlanta,GA,33.844371,-84.47405,,DistributionCenter_89,Warehouse_16
30341,Atlanta,GA,33.888102,-84.29321,,DistributionCenter_89,Warehouse_16
30327,Atlanta,GA,33.86427,-84.41972,,DistributionCenter_89,Warehouse_16
30321,Atlanta,GA,33.844371,-84.47405,,DistributionCenter_89,Warehouse_16
31141,Atlanta,GA,33.891251,-84.07456,,DistributionCenter_89,Warehouse_16
31107,Atlanta,GA,33.844371,-84.47405,,DistributionCenter_89,Warehouse_16
30308,Atlanta,GA,33.771755,-84.38065,,DistributionCenter_89,Warehouse_16
30348,Atlanta,GA,33.844371,-84.47405,,DistributionCenter_89,Warehouse_16
30374,Atlanta,GA,33.844371,-84.47405,,DistributionCenter_89,Warehouse_16
30378,Atlanta,GA,33.844371,-84.47405,,DistributionCenter_90,Warehouse_16
30358,Atlanta,GA,33.998151,-84.34112,,DistributionCenter_90,Warehouse_16
30390,Atlanta,GA,33.844371,-84.47405,DistributionCenter_90,DistributionCenter_90,Warehouse_16
30343,Atlanta,GA,33.844371,-84.47405,,DistributionCenter_90,Warehouse_16
30309,Atlanta,GA,33.794055,-84.38525,,DistributionCenter_90,Warehouse_16
30330,Atlanta,GA,33.707107,-84.432127,,DistributionCenter_90,Warehouse_17
31193,Atlanta,GA,33.844371,-84.47405,,DistributionCenter_90,Warehouse_17
30399,Atlanta,GA,33.844371,-84.47405,,DistributionCenter_91,Warehouse_17
30338,Atlanta,GA,33.942751,-84.31769,DistributionCenter_91,DistributionCenter_91,Warehouse_17
31119,Atlanta,GA,33.891251,-84.07456,,DistributionCenter_91,Warehouse_17
31126,Atlanta,GA,33.844371,-84.47405,,DistributionCenter_91,Warehouse_17
30317,Atlanta,GA,33.750005,-84.31854,,DistributionCenter_91,Warehouse_17
30356,Atlanta,GA,33.891251,-84.07456,,DistributionCenter_91,Warehouse_17
31106,Atlanta,GA,33.844371,-84.47405,,DistributionCenter_91,Warehouse_17
30377,Atlanta,GA,33.844371,-84.47405,,DistributionCenter_92,Warehouse_17
30302,Atlanta,GA,33.844371,-84.47405,,DistributionCenter_92,Warehouse_17
30337,Atlanta,GA,33.646984,-84.4538,,DistributionCenter_92,Warehouse_17
30367,Atlanta,GA,33.789255,-84.387276,DistributionCenter_92,DistributionCenter_92,Warehouse_17
30353,Atlanta,GA,33.844371,-84.47405,,DistributionCenter_92,Warehouse_17
30307,Atlanta,GA,33.768205,-84.33786,,DistributionCenter_92,Warehouse_17
30333,Atlanta,GA,33.891251,-84.07456,,DistributionCenter_92,Warehouse_17
30320,Atlanta,GA,33.656824,-84.423648,,DistributionCenter_92,Warehouse_17
30360,Atlanta,GA,33.934536,-84.27215,,DistributionCenter_92,Warehouse_17
30340,Atlanta,GA,33.899381,-84.25367,,DistributionCenter_92,Warehouse_17
31156,Atlanta,GA,33.844371,-84.47405,,DistributionCenter_93,Warehouse_17
30368,Atlanta,GA,33.844371,-84.47405,,DistributionCenter_93,Warehouse_17
30359,Atlanta,GA,33.891251,-84.07456,,DistributionCenter_93,Warehouse_17
30311,Atlanta,GA,33.724907,-84.47131,DistributionCenter_93,DistributionCenter_93,Warehouse_17
30386,Atlanta,GA,33.844371,-84.47405,,DistributionCenter_93,Warehouse_17
30381,Atlanta,GA,33.844371,-84.47405,,DistributionCenter_93,Warehouse_17
30336,Atlanta,GA,33.744007,-84.56032,,DistributionCenter_93,Warehouse_17
30328,Atlanta,GA,33.931746,-84.37817,,DistributionCenter_93,Warehouse_17
31192,Atlanta,GA,33.844371,-84.47405,,DistributionCenter_93,Warehouse_17
30369,Atlanta,GA,33.844371,-84.47405,,DistributionCenter_93,Warehouse_17
39901,Atlanta,GA,33.891251,-84.07456,,DistributionCenter_93,Warehouse_17
31191,Atlanta,GA,33.844371,-84.47405,,DistributionCenter_93,Warehouse_17
30306,Atlanta,GA,33.786755,-84.35149,,DistributionCenter_93,Warehouse_17
30365,Atlanta,GA,33.844371,-84.47405,,DistributionCenter_93,Warehouse_17
30344,Atlanta,GA,33.676258,-84.44977,,DistributionCenter_93,Warehouse_17
30331,Atlanta,GA,33.715558,-84.52728,,DistributionCenter_94,Warehouse_17
30318,Atlanta,GA,33.786805,-84.437,,DistributionCenter_94,Warehouse_17
30326,Atlanta,GA,33.849853,-84.3606,DistributionCenter_94,DistributionCenter_94,Warehouse_17
30323,Atlanta,GA,33.844371,-84.47405,,DistributionCenter_94,Warehouse_17
30325,Atlanta,GA,33.844371,-84.47405,,DistributionCenter_94,Warehouse_17
30388,Atlanta,GA,33.844371,-84.47405,,DistributionCenter_94,Warehouse_17
30329,Atlanta,GA,33.827554,-84.32355,,DistributionCenter_94,Warehouse_17
30304,Atlanta,GA,33.848196,-84.429296,,DistributionCenter_94,Warehouse_17
30392,Atlanta,GA,33.844371,-84.47405,,DistributionCenter_94,Warehouse_17
30350,Atlanta,GA,33.97285,-84.32775,,DistributionCenter_94,Warehouse_17
30376,Atlanta,GA,33.844371,-84.47405,,DistributionCenter_94,Warehouse_17
30351,Atlanta,GA,33.844371,-84.47405,,DistributionCenter_94,Warehouse_17
30313,Atlanta,GA,33.761223,-84.39599,,DistributionCenter_94,Warehouse_17
31198,Atlanta,GA,33.844371,-84.47405,,DistributionCenter_94,Warehouse_17
30389,Atlanta,GA,33.844371,-84.47405,,DistributionCenter_94,Warehouse_17
30314,Atlanta,GA,33.758056,-84.42268,,DistributionCenter_94,Warehouse_17
30363,Atlanta,GA,33.844371,-84.47405,,DistributionCenter_94,Warehouse_17
30342,Atlanta,GA,33.879003,-84.37203,,DistributionCenter_94,Warehouse_17
31195,Atlanta,GA,33.844371,-84.47405,,DistributionCenter_94,Warehouse_17
30301,Atlanta,GA,33.844371,-84.47405,,DistributionCenter_95,Warehouse_17
30366,Atlanta,GA,33.891251,-84.07456,,DistributionCenter_95,Warehouse_17
30394,Atlanta,GA,33.844371,-84.47405,,DistributionCenter_95,Warehouse_17
30319,Atlanta,GA,33.872053,-84.33611,DistributionCenter_95,DistributionCenter_95,Warehouse_17
30385,Atlanta,GA,33.844371,-84.47405,,DistributionCenter_95,Warehouse_17
31145,Atlanta,GA,33.891251,-84.07456,,DistributionCenter_95,Warehouse_17
30398,Atlanta,GA,33.844371,-84.47405,,DistributionCenter_95,Warehouse_17
30375,Atlanta,GA,33.844371,-84.47405,,DistributionCenter_95,Warehouse_17
30387,Atlanta,GA,33.844371,-84.47405,,DistributionCenter_95,Warehouse_17
30357,Atlanta,GA,33.844371,-84.47405,,DistributionCenter_95,Warehouse_17
30310,Atlanta,GA,33.727807,-84.41983,,DistributionCenter_95,Warehouse_17
30332,Atlanta,GA,33.776305,-84.397976,,DistributionCenter_95,Warehouse_17
31199,Atlanta,GA,33.844371,-84.47405,,DistributionCenter_95,Warehouse_17
30315,Atlanta,GA,33.709595,-84.38365,,DistributionCenter_95,Warehouse_17
30355,Atlanta,GA,33.844371,-84.47405,,DistributionCenter_95,Warehouse_17
30362,Atlanta,GA,33.891251,-84.07456,,DistributionCenter_95,Warehouse_17
75551,Atlanta,TX,33.118611,-94.1773,,DistributionCenter_95,Warehouse_17
30347,Atlanta,GA,33.844371,-84.47405,,DistributionCenter_96,Warehouse_17
31146,Atlanta,GA,33.891251,-84.07456,,DistributionCenter_96,Warehouse_17
30345,Atlanta,GA,33.851736,-84.28412,DistributionCenter_96,DistributionCenter_96,Warehouse_17
30346,Atlanta,GA,33.926753,-84.33877,,DistributionCenter_96,Warehouse_17
30349,Atlanta,GA,33.61541,-84.49033,,DistributionCenter_96,Warehouse_17
49709,Atlanta,MI,45.016358,-84.14518,,DistributionCenter_96,Warehouse_17
30396,Atlanta,GA,33.844371,-84.47405,,DistributionCenter_96,Warehouse_17
31197,Atlanta,GA,33.844371,-84.47405,,DistributionCenter_96,Warehouse_17
30371,Atlanta,GA,33.844371,-84.47405,,DistributionCenter_97,Warehouse_17
30324,Atlanta,GA,33.818304,-84.35779,,DistributionCenter_97,Warehouse_17
30361,Atlanta,GA,33.844371,-84.47405,,DistributionCenter_97,Warehouse_17
31196,Atlanta,GA,33.844371,-84.47405,,DistributionCenter_97,Warehouse_17
30305,Atlanta,GA,33.830054,-84.38472,DistributionCenter_97,DistributionCenter_97,Warehouse_17
28511,Atlantic,NC,34.887266,-76.33033,,DistributionCenter_97,Warehouse_17
16111,Atlantic,PA,41.518256,-80.2834,,DistributionCenter_97,Warehouse_17
50022,Atlantic,IA,41.410484,-95.00852,,DistributionCenter_97,Warehouse_17
23303,Atlantic,VA,37.892445,-75.51107,,DistributionCenter_97,Warehouse_17
